STARLINK-1499
1 15762C 20038AJ  21326.13002882  .00007384  00000-0  49470-3 0  3268
2 15762  53.0544  58.1657 0000992  71.0995 336.7676 15.06393875    16
